[{"OBJECT_NAME":"USA 157 (MILSTAR-2 2)","OBJECT_ID":"2001-009A","EPOCH":"2026-03-28T12:24:38.854368","MEAN_MOTION":1.00276658,"ECCENTRICITY":0.003766,"INCLINATION":11.4555,"RA_OF_ASC_NODE":20.2578,"ARG_OF_PERICENTER":181.347,"MEAN_ANOMALY":20.4758,"EPHEMERIS_TYPE":0,"CLASSIFICATION_TYPE":"U","NORAD_CAT_ID":26715,"ELEMENT_SET_NO":999,"REV_AT_EPOCH":3213,"BSTAR":0,"MEAN_MOTION_DOT":9.6e-7,"MEAN_MOTION_DDOT":0},{"OBJECT_NAME":"USA 159 (DSP 21)","OBJECT_ID":"2001-033A","EPOCH":"2026-03-28T10:41:59.339616","MEAN_MOTION":0.99198212,"ECCENTRICITY":6.173e-5,"INCLINATION":12.7061,"RA_OF_ASC_NODE":16.9789,"ARG_OF_PERICENTER":276.3508,"MEAN_ANOMALY":273.6979,"EPHEMERIS_TYPE":0,"CLASSIFICATION_TYPE":"U","NORAD_CAT_ID":26880,"ELEMENT_SET_NO":999,"REV_AT_EPOCH":3215,"BSTAR":0,"MEAN_MOTION_DOT":3.9e-7,"MEAN_MOTION_DDOT":0},{"OBJECT_NAME":"INTELSAT 902 (IS-902)","OBJECT_ID":"2001-039A","EPOCH":"2026-03-28T19:40:50.204064","MEAN_MOTION":1.00270956,"ECCENTRICITY":0.00046078,"INCLINATION":5.9148,"RA_OF_ASC_NODE":72.7506,"ARG_OF_PERICENTER":295.2303,"MEAN_ANOMALY":63.3628,"EPHEMERIS_TYPE":0,"CLASSIFICATION_TYPE":"U","NORAD_CAT_ID":26900,"ELEMENT_SET_NO":999,"REV_AT_EPOCH":8988,"BSTAR":0,"MEAN_MOTION_DOT":-2.98e-6,"MEAN_MOTION_DDOT":0},{"OBJECT_NAME":"USA 164 (MILSTAR-2 3)","OBJECT_ID":"2002-001A","EPOCH":"2026-03-27T00:39:38.668032","MEAN_MOTION":1.00278541,"ECCENTRICITY":0.0099888,"INCLINATION":11.0833,"RA_OF_ASC_NODE":22.3992,"ARG_OF_PERICENTER":5.7119,"MEAN_ANOMALY":185.3441,"EPHEMERIS_TYPE":0,"CLASSIFICATION_TYPE":"U","NORAD_CAT_ID":27168,"ELEMENT_SET_NO":999,"REV_AT_EPOCH":3213,"BSTAR":0,"MEAN_MOTION_DOT":8.7e-7,"MEAN_MOTION_DDOT":0},{"OBJECT_NAME":"INTELSAT 904 (IS-904)","OBJECT_ID":"2002-007A","EPOCH":"2026-03-28T19:46:12.189216","MEAN_MOTION":1.00270141,"ECCENTRICITY":0.00070732,"INCLINATION":6.7209,"RA_OF_ASC_NODE":70.1354,"ARG_OF_PERICENTER":321.5851,"MEAN_ANOMALY":59.5665,"EPHEMERIS_TYPE":0,"CLASSIFICATION_TYPE":"U","NORAD_CAT_ID":27380,"ELEMENT_SET_NO":999,"REV_AT_EPOCH":5096,"BSTAR":0,"MEAN_MOTION_DOT":-2.4e-6,"MEAN_MOTION_DDOT":0},{"OBJECT_NAME":"DIRECTV 5 (TEMPO 1)","OBJECT_ID":"2002-023A","EPOCH":"2026-03-28T21:06:29.219040","MEAN_MOTION":1.00271669,"ECCENTRICITY":0.00035274,"INCLINATION":4.6738,"RA_OF_ASC_NODE":76.2945,"ARG_OF_PERICENTER":293.2554,"MEAN_ANOMALY":23.2496,"EPHEMERIS_TYPE":0,"CLASSIFICATION_TYPE":"U","NORAD_CAT_ID":27426,"ELEMENT_SET_NO":999,"REV_AT_EPOCH":8731,"BSTAR":0,"MEAN_MOTION_DOT":-7.3e-7,"MEAN_MOTION_DDOT":0},{"OBJECT_NAME":"INTELSAT 905 (IS-905)","OBJECT_ID":"2002-027A","EPOCH":"2026-03-28T14:07:54.067008","MEAN_MOTION":1.00272414,"ECCENTRICITY":0.0003065,"INCLINATION":6.5526,"RA_OF_ASC_NODE":70.7566,"ARG_OF_PERICENTER":302.9923,"MEAN_ANOMALY":247.0266,"EPHEMERIS_TYPE":0,"CLASSIFICATION_TYPE":"U","NORAD_CAT_ID":27438,"ELEMENT_SET_NO":999,"REV_AT_EPOCH":5055,"BSTAR":0,"MEAN_MOTION_DOT":7.9e-7,"MEAN_MOTION_DDOT":0},{"OBJECT_NAME":"GALAXY 3C (G-3C)","OBJECT_ID":"2002-030A","EPOCH":"2026-03-28T08:02:38.698368","MEAN_MOTION":1.00270958,"ECCENTRICITY":0.00011989,"INCLINATION":3.5233,"RA_OF_ASC_NODE":79.0943,"ARG_OF_PERICENTER":26.0425,"MEAN_ANOMALY":106.4195,"EPHEMERIS_TYPE":0,"CLASSIFICATION_TYPE":"U","NORAD_CAT_ID":27445,"ELEMENT_SET_NO":999,"REV_AT_EPOCH":4568,"BSTAR":0,"MEAN_MOTION_DOT":-1.69e-6,"MEAN_MOTION_DDOT":0},{"OBJECT_NAME":"INTELSAT 906 (IS-906)","OBJECT_ID":"2002-041A","EPOCH":"2026-03-28T21:56:09.453984","MEAN_MOTION":1.00270835,"ECCENTRICITY":0.00033083,"INCLINATION":5.5994,"RA_OF_ASC_NODE":73.896,"ARG_OF_PERICENTER":301.6155,"MEAN_ANOMALY":204.0057,"EPHEMERIS_TYPE":0,"CLASSIFICATION_TYPE":"U","NORAD_CAT_ID":27513,"ELEMENT_SET_NO":999,"REV_AT_EPOCH":8622,"BSTAR":0,"MEAN_MOTION_DOT":-2.0e-8,"MEAN_MOTION_DDOT":0},{"OBJECT_NAME":"NIMIQ 2","OBJECT_ID":"2002-062A","EPOCH":"2026-03-28T11:59:14.679744","MEAN_MOTION":1.00272039,"ECCENTRICITY":0.00064166,"INCLINATION":9.2614,"RA_OF_ASC_NODE":57.7356,"ARG_OF_PERICENTER":308.2875,"MEAN_ANOMALY":250.5103,"EPHEMERIS_TYPE":0,"CLASSIFICATION_TYPE":"U","NORAD_CAT_ID":27632,"ELEMENT_SET_NO":999,"REV_AT_EPOCH":4337,"BSTAR":0,"MEAN_MOTION_DOT":-8.2e-7,"MEAN_MOTION_DDOT":0},{"OBJECT_NAME":"USA 167","OBJECT_ID":"2003-008A","EPOCH":"2026-03-28T11:11:38.732064","MEAN_MOTION":1.00269845,"ECCENTRICITY":0.00056782,"INCLINATION":10.8034,"RA_OF_ASC_NODE":44.1193,"ARG_OF_PERICENTER":295.477,"MEAN_ANOMALY":252.2701,"EPHEMERIS_TYPE":0,"CLASSIFICATION_TYPE":"U","NORAD_CAT_ID":27691,"ELEMENT_SET_NO":999,"REV_AT_EPOCH":596,"BSTAR":0,"MEAN_MOTION_DOT":-7.0e-8,"MEAN_MOTION_DDOT":0},{"OBJECT_NAME":"USA 169 (MILSTAR-2 4)","OBJECT_ID":"2003-012A","EPOCH":"2026-03-28T17:50:38.535648","MEAN_MOTION":1.00272844,"ECCENTRICITY":0.01013256,"INCLINATION":12.2297,"RA_OF_ASC_NODE":30.4859,"ARG_OF_PERICENTER":4.7587,"MEAN_ANOMALY":210.7157,"EPHEMERIS_TYPE":0,"CLASSIFICATION_TYPE":"U","NORAD_CAT_ID":27711,"ELEMENT_SET_NO":999,"REV_AT_EPOCH":3214,"BSTAR":0,"MEAN_MOTION_DOT":-2.71e-6,"MEAN_MOTION_DDOT":0},{"OBJECT_NAME":"ASIASAT 4","OBJECT_ID":"2003-014A","EPOCH":"2026-03-28T17:44:51.657792","MEAN_MOTION":1.00271011,"ECCENTRICITY":0.00026676,"INCLINATION":4.499,"RA_OF_ASC_NODE":76.7428,"ARG_OF_PERICENTER":296.9125,"MEAN_ANOMALY":226.2622,"EPHEMERIS_TYPE":0,"CLASSIFICATION_TYPE":"U","NORAD_CAT_ID":27718,"ELEMENT_SET_NO":999,"REV_AT_EPOCH":4449,"BSTAR":0,"MEAN_MOTION_DOT":-2.38e-6,"MEAN_MOTION_DDOT":0},{"OBJECT_NAME":"HELLAS-SAT 2","OBJECT_ID":"2003-020A","EPOCH":"2026-03-28T18:09:38.386656","MEAN_MOTION":1.00271915,"ECCENTRICITY":0.0006358,"INCLINATION":7.1562,"RA_OF_ASC_NODE":68.8318,"ARG_OF_PERICENTER":261.3408,"MEAN_ANOMALY":118.3861,"EPHEMERIS_TYPE":0,"CLASSIFICATION_TYPE":"U","NORAD_CAT_ID":27811,"ELEMENT_SET_NO":999,"REV_AT_EPOCH":4204,"BSTAR":0,"MEAN_MOTION_DOT":-9.8e-7,"MEAN_MOTION_DDOT":0},{"OBJECT_NAME":"THURAYA-2","OBJECT_ID":"2003-026A","EPOCH":"2026-03-28T21:50:25.004832","MEAN_MOTION":1.00272769,"ECCENTRICITY":0.0003549,"INCLINATION":8.7176,"RA_OF_ASC_NODE":32.2896,"ARG_OF_PERICENTER":327.5391,"MEAN_ANOMALY":198.0923,"EPHEMERIS_TYPE":0,"CLASSIFICATION_TYPE":"U","NORAD_CAT_ID":27825,"ELEMENT_SET_NO":999,"REV_AT_EPOCH":8354,"BSTAR":0,"MEAN_MOTION_DOT":1.11e-6,"MEAN_MOTION_DDOT":0},{"OBJECT_NAME":"OPTUS C1","OBJECT_ID":"2003-028B","EPOCH":"2026-03-28T18:39:38.769984","MEAN_MOTION":1.00273112,"ECCENTRICITY":0.00061791,"INCLINATION":6.69,"RA_OF_ASC_NODE":70.3701,"ARG_OF_PERICENTER":295.791,"MEAN_ANOMALY":255.6491,"EPHEMERIS_TYPE":0,"CLASSIFICATION_TYPE":"U","NORAD_CAT_ID":27831,"ELEMENT_SET_NO":999,"REV_AT_EPOCH":5225,"BSTAR":0,"MEAN_MOTION_DOT":-1.66e-6,"MEAN_MOTION_DDOT":0},{"OBJECT_NAME":"USA 170","OBJECT_ID":"2003-040A","EPOCH":"2026-03-28T13:11:14.500896","MEAN_MOTION":1.00269893,"ECCENTRICITY":0.0001527,"INCLINATION":10.3317,"RA_OF_ASC_NODE":48.6978,"ARG_OF_PERICENTER":350.3893,"MEAN_ANOMALY":8.7813,"EPHEMERIS_TYPE":0,"CLASSIFICATION_TYPE":"U","NORAD_CAT_ID":27875,"ELEMENT_SET_NO":999,"REV_AT_EPOCH":3218,"BSTAR":0,"MEAN_MOTION_DOT":1.13e-6,"MEAN_MOTION_DDOT":0},{"OBJECT_NAME":"GALAXY 13 (HORIZONS-1)","OBJECT_ID":"2003-044A","EPOCH":"2026-03-28T17:29:42.217440","MEAN_MOTION":1.0027216,"ECCENTRICITY":0.0002182,"INCLINATION":1.2103,"RA_OF_ASC_NODE":84.8863,"ARG_OF_PERICENTER":285.0674,"MEAN_ANOMALY":288.5929,"EPHEMERIS_TYPE":0,"CLASSIFICATION_TYPE":"U","NORAD_CAT_ID":27954,"ELEMENT_SET_NO":999,"REV_AT_EPOCH":4576,"BSTAR":0,"MEAN_MOTION_DOT":1.14e-6,"MEAN_MOTION_DDOT":0},{"OBJECT_NAME":"YAMAL 202","OBJECT_ID":"2003-053A","EPOCH":"2026-03-28T18:59:03.647616","MEAN_MOTION":1.00273055,"ECCENTRICITY":0.00048127,"INCLINATION":6.1401,"RA_OF_ASC_NODE":71.9063,"ARG_OF_PERICENTER":263.2803,"MEAN_ANOMALY":299.3517,"EPHEMERIS_TYPE":0,"CLASSIFICATION_TYPE":"U","NORAD_CAT_ID":28089,"ELEMENT_SET_NO":999,"REV_AT_EPOCH":8189,"BSTAR":0,"MEAN_MOTION_DOT":-9.4e-7,"MEAN_MOTION_DDOT":0},{"OBJECT_NAME":"UFO 11 (USA 174)","OBJECT_ID":"2003-057A","EPOCH":"2026-03-28T21:17:38.519232","MEAN_MOTION":1.00272267,"ECCENTRICITY":0.00031188,"INCLINATION":8.886,"RA_OF_ASC_NODE":34.2115,"ARG_OF_PERICENTER":316.2968,"MEAN_ANOMALY":230.627,"EPHEMERIS_TYPE":0,"CLASSIFICATION_TYPE":"U","NORAD_CAT_ID":28117,"ELEMENT_SET_NO":999,"REV_AT_EPOCH":8164,"BSTAR":0,"MEAN_MOTION_DOT":-1.16e-6,"MEAN_MOTION_DDOT":0},{"OBJECT_NAME":"USA 176 (DSP 22)","OBJECT_ID":"2004-004A","EPOCH":"2026-03-28T09:00:38.579328","MEAN_MOTION":1.00431644,"ECCENTRICITY":0.00024128,"INCLINATION":11.9545,"RA_OF_ASC_NODE":26.6609,"ARG_OF_PERICENTER":290.8784,"MEAN_ANOMALY":273.2893,"EPHEMERIS_TYPE":0,"CLASSIFICATION_TYPE":"U","NORAD_CAT_ID":28158,"ELEMENT_SET_NO":999,"REV_AT_EPOCH":3212,"BSTAR":0,"MEAN_MOTION_DOT":-2.27e-6,"MEAN_MOTION_DDOT":0},{"OBJECT_NAME":"ABS-4 (MOBISAT-1)","OBJECT_ID":"2004-007A","EPOCH":"2026-03-28T13:21:50.982048","MEAN_MOTION":1.00271798,"ECCENTRICITY":0.0005433,"INCLINATION":5.8381,"RA_OF_ASC_NODE":72.9756,"ARG_OF_PERICENTER":297.3599,"MEAN_ANOMALY":77.0436,"EPHEMERIS_TYPE":0,"CLASSIFICATION_TYPE":"U","NORAD_CAT_ID":28184,"ELEMENT_SET_NO":999,"REV_AT_EPOCH":5153,"BSTAR":0,"MEAN_MOTION_DOT":2.4e-7,"MEAN_MOTION_DDOT":0},{"OBJECT_NAME":"EUTELSAT 139 WEST A","OBJECT_ID":"2004-008A","EPOCH":"2026-03-28T16:33:02.648736","MEAN_MOTION":1.00832897,"ECCENTRICITY":0.00033333,"INCLINATION":5.6252,"RA_OF_ASC_NODE":72.9539,"ARG_OF_PERICENTER":25.3951,"MEAN_ANOMALY":347.5965,"EPHEMERIS_TYPE":0,"CLASSIFICATION_TYPE":"U","NORAD_CAT_ID":28187,"ELEMENT_SET_NO":999,"REV_AT_EPOCH":8055,"BSTAR":0,"MEAN_MOTION_DOT":1.14e-6,"MEAN_MOTION_DDOT":0},{"OBJECT_NAME":"AMC-11","OBJECT_ID":"2004-017A","EPOCH":"2026-03-28T21:06:06.755040","MEAN_MOTION":1.00271784,"ECCENTRICITY":0.00031372,"INCLINATION":0.1042,"RA_OF_ASC_NODE":79.7748,"ARG_OF_PERICENTER":288.0731,"MEAN_ANOMALY":23.8533,"EPHEMERIS_TYPE":0,"CLASSIFICATION_TYPE":"U","NORAD_CAT_ID":28252,"ELEMENT_SET_NO":999,"REV_AT_EPOCH":8005,"BSTAR":0,"MEAN_MOTION_DOT":-6.9e-7,"MEAN_MOTION_DDOT":0}]
